{
  "norad_id": 46146,
  "name": "STARLINK-1608",
  "history": [
    {
      "epoch": "2026-05-05T12:04:17.205888Z",
      "apogee_km": 467.47505590265064,
      "perigee_km": 465.3162902975555,
      "latitude_deg": -3.6811927201722393e-06,
      "longitude_deg": 0.6375762906381899,
      "height_km": 468.1241629567706,
      "semi_major_axis_km": 6844.532673100103,
      "eccentricity": 0.0001577,
      "inclination_deg": 53.1622,
      "raan_deg": 45.0863,
      "arg_perigee_deg": 140.1516,
      "mean_anomaly_deg": 219.9602,
      "mean_motion_rev_day": 15.33158519
    },
    {
      "epoch": "2026-05-06T11:32:20.191200Z",
      "apogee_km": 467.17070514215084,
      "perigee_km": 465.342156993107,
      "latitude_deg": 2.5611065008234103e-05,
      "longitude_deg": 3.1005797507575514,
      "height_km": 468.03027595998645,
      "semi_major_axis_km": 6844.393431067629,
      "eccentricity": 0.00013358,
      "inclination_deg": 53.163,
      "raan_deg": 40.5255,
      "arg_perigee_deg": 162.7498,
      "mean_anomaly_deg": 197.355,
      "mean_motion_rev_day": 15.33205305
    },
    {
      "epoch": "2026-05-07T03:10:59.759904Z",
      "apogee_km": 467.07638862621116,
      "perigee_km": 465.0020556967984,
      "latitude_deg": 1.025985643683587e-05,
      "longitude_deg": 124.75040669344723,
      "height_km": 467.9221688079959,
      "semi_major_axis_km": 6844.1762221615045,
      "eccentricity": 0.00015154,
      "inclination_deg": 53.1601,
      "raan_deg": 37.4827,
      "arg_perigee_deg": 161.3399,
      "mean_anomaly_deg": 198.7659,
      "mean_motion_rev_day": 15.33278293
    },
    {
      "epoch": "2026-05-08T10:28:12.392256Z",
      "apogee_km": 466.7726169902853,
      "perigee_km": 464.6168100005343,
      "latitude_deg": -3.9227031854116305e-05,
      "longitude_deg": 8.078625839350432,
      "height_km": 467.6636861155446,
      "semi_major_axis_km": 6843.8317134954095,
      "eccentricity": 0.0001575,
      "inclination_deg": 53.1604,
      "raan_deg": 31.3985,
      "arg_perigee_deg": 172.3253,
      "mean_anomaly_deg": 187.7773,
      "mean_motion_rev_day": 15.33394069
    },
    {
      "epoch": "2026-05-09T09:56:02.339808Z",
      "apogee_km": 466.5212733542767,
      "perigee_km": 464.5680866028097,
      "latitude_deg": -5.150480372674641e-06,
      "longitude_deg": 10.592106946254287,
      "height_km": 467.40448679265114,
      "semi_major_axis_km": 6843.681679978543,
      "eccentricity": 0.0001427,
      "inclination_deg": 53.1595,
      "raan_deg": 26.8337,
      "arg_perigee_deg": 169.1804,
      "mean_anomaly_deg": 190.9229,
      "mean_motion_rev_day": 15.33444494
    },
    {
      "epoch": "2026-05-10T20:20:44.254752Z",
      "apogee_km": 466.131549047871,
      "perigee_km": 464.3057417616774,
      "latitude_deg": -1.1033897938038306e-05,
      "longitude_deg": -153.69048101127638,
      "height_km": 467.0324001821391,
      "semi_major_axis_km": 6843.355645404774,
      "eccentricity": 0.0001334,
      "inclination_deg": 53.1588,
      "raan_deg": 20.139,
      "arg_perigee_deg": 180.4703,
      "mean_anomaly_deg": 179.6298,
      "mean_motion_rev_day": 15.33554081
    },
    {
      "epoch": "2026-05-11T19:48:24.084864Z",
      "apogee_km": 465.97354597781487,
      "perigee_km": 463.9904100979802,
      "latitude_deg": 1.0910291867921517e-05,
      "longitude_deg": -151.13303536880576,
      "height_km": 466.8703393906174,
      "semi_major_axis_km": 6843.118978037897,
      "eccentricity": 0.0001449,
      "inclination_deg": 53.1599,
      "raan_deg": 15.5759,
      "arg_perigee_deg": 185.3887,
      "mean_anomaly_deg": 174.71,
      "mean_motion_rev_day": 15.33633638
    },
    {
      "epoch": "2026-05-12T20:49:51.401856Z",
      "apogee_km": 465.8704781032511,
      "perigee_km": 463.80389989817286,
      "latitude_deg": -2.7035776025731286e-05,
      "longitude_deg": -172.3914936378497,
      "height_km": 466.76332972878976,
      "semi_major_axis_km": 6842.974189000712,
      "eccentricity": 0.000151,
      "inclination_deg": 53.1608,
      "raan_deg": 10.709,
      "arg_perigee_deg": 187.3591,
      "mean_anomaly_deg": 172.7389,
      "mean_motion_rev_day": 15.33682313
    },
    {
      "epoch": "2026-05-13T09:20:33.614880Z",
      "apogee_km": 465.7578573719711,
      "perigee_km": 463.73646939010814,
      "latitude_deg": -2.2689975190339067e-05,
      "longitude_deg": -3.015615998428764,
      "height_km": 466.64311731756175,
      "semi_major_axis_km": 6842.884163381039,
      "eccentricity": 0.0001477,
      "inclination_deg": 53.1613,
      "raan_deg": 8.2746,
      "arg_perigee_deg": 190.2884,
      "mean_anomaly_deg": 169.8088,
      "mean_motion_rev_day": 15.33712579
    }
  ]
}